GALAXY 18 (G-18)        
1 32951U 08024A   24072.19493109  .00000015  00000+0  00000+0 0  9999
2 32951   0.0148 208.1788 0003039 157.8431 111.4488  1.00271513 57798
CHINASAT 9 (ZX 9)       
1 33051U 08028A   24072.10919081 -.00000258  00000+0  00000+0 0  9998
2 33051   0.0203 131.0896 0004642 241.2057 289.4389  1.00270350 57715
SKYNET 5C               
1 33055U 08030A   24072.15888071 -.00000150  00000+0  00000+0 0  9995
2 33055   1.6566  86.2949 0004514 276.7055 206.6534  1.00271601 57608
TURKSAT 3A              
1 33056U 08030B   24071.81281166  .00000136  00000+0  00000+0 0  9993
2 33056   0.0325 124.4365 0003879 249.4703 130.6107  1.00269726 57788
INTELSAT 25 (IS-25)     
1 33153U 08034A   24072.15618302 -.00000234  00000+0  00000+0 0  9999
2 33153   0.5672  90.2918 0002959 258.6772 206.0299  1.00271787 57348
BADR-6                  
1 33154U 08034B   24071.84355179  .00000134  00000+0  00000+0 0  9993
2 33154   0.7075  87.2287 0008316 312.1967 100.2716  1.00269168 57459
ECHOSTAR 11             
1 33207U 08035A   24072.56912944 -.00000067  00000+0  00000+0 0  9998
2 33207   0.0335 273.7835 0002811  63.0460 288.7304  1.00270759 57368
SUPERBIRD-C2            
1 33274U 08038A   24071.83308792 -.00000262  00000+0  00000+0 0  9991
2 33274   0.2182  92.8340 0001287 246.4617 274.4998  1.00269871 57085
AMC-21                  
1 33275U 08038B   24072.13764720  .00000026  00000+0  00000+0 0  9990
2 33275   0.8062  91.4304 0002899 256.8218 106.6390  1.00272172 57176
INMARSAT 4-F3           
1 33278U 08039A   24072.20875635 -.00000149  00000+0  00000+0 0  9997
2 33278   3.6408  26.4931 0002826 330.2149 150.7722  1.00271752 56977
NIMIQ 4                 
1 33373U 08044A   24072.48105042 -.00000230  00000+0  00000+0 0  9998
2 33373   0.0315 251.3808 0001584 108.9706 261.3993  1.00270691 56545
GALAXY 19 (G-19)        
1 33376U 08045A   24071.55535696 -.00000150  00000+0  00000+0 0  9992
2 33376   0.0560 275.6345 0003049  83.9157 273.0497  1.00272008 56537
ASTRA 1M                
1 33436U 08057A   24071.59347425  .00000109  00000+0  00000+0 0  9990
2 33436   0.0333  93.9368 0001668 315.6040 353.0106  1.00272675 37433
CIEL-2                  
1 33453U 08063A   24071.59678111  .00000010  00000+0  00000+0 0  9996
2 33453   0.6185  92.6054 0009143 304.2293  23.4508  0.99022681 55825
EUTELSAT HOTBIRD 13C    
1 33459U 08065A   24072.15992500 -.00000111  00000+0  00000+0 0  9991
2 33459   0.8127  87.8862 0004811 259.7193 227.7390  1.00271484 55954
FENGYUN 2E              
1 33463U 08066A   24072.46598351 -.00000204  00000+0  00000+0 0  9990
2 33463   7.3306  60.9958 0001507 299.5395  63.9279  1.00262278 55804
EXPRESS-AM44            
1 33595U 09007A   24072.37504490 -.00000099  00000+0  00000+0 0  9995
2 33595   1.3263  88.3598 0004037 257.2049 308.9263  1.00271322 55241
NSS-9                   
1 33749U 09008A   24072.46716236  .00000061  00000+0  00000+0 0  9998
2 33749   0.0520 317.2012 0002119  24.7938 179.8242  1.00269978 55271
EUTELSAT 33E            
1 33750U 09008B   24071.57067434 -.00000159  00000+0  00000+0 0  9999
2 33750   0.5311  89.4792 0003562 261.4485 288.7769  1.00268937 55143
TELSTAR 11N             
1 34111U 09009A   24072.40188309 -.00000261  00000+0  00000+0 0  9994
2 34111   0.0041 100.3528 0002536 234.2328 303.0502  1.00271113 55128
WGS F2 (USA 204)        
1 34713U 09017A   24072.20813532  .00000058  00000+0  00000+0 0  9995
2 34713   0.0025 171.5197 0000126 139.6422 351.5743  1.00270571 54644
SES-7 (PROTOSTAR 2)     
1 34941U 09027A   24071.83666611 -.00000356  00000+0  00000+0 0  9993
2 34941   0.0288  79.9608 0001853 231.9855 267.4734  1.00272039 54310
MEASAT-3A               
1 35362U 09032A   24071.53627890 -.00000253  00000+0  00000+0 0  9996
2 35362   0.0447 227.6961 0001439  67.3403 159.1701  1.00272879 53940
GOES 14                 
1 35491U 09033A   24071.69563417 -.00000077  00000+0  00000+0 0  9995
2 35491   0.1094 127.7383 0002194 269.4275 274.6484  1.00270021 53859
FM-5                    
1 35493U 09034A   24071.48660382 -.00000211  00000+0  00000+0 0  9994
2 35493   0.0194 247.1724 0001579 319.3770  52.0815  1.00270787 38340
TERRESTAR-1             
1 35496U 09035A   24072.50466071 -.00000065  00000+0  00000+0 0  9998
2 35496   4.2464  46.8971 0002924 306.6291 247.7701  1.00272173 53861
ASIASAT 5               
1 35696U 09042A   24071.89969171 -.00000318  00000+0  00000+0 0  9999
2 35696   0.0422 256.2976 0001746  88.8299 249.2786  1.00273512 53375
JCSAT-12 (JCSAT-RA)     
1 35755U 09044A   24071.56924497 -.00000339  00000+0  00000+0 0  9996
2 35755   0.0288 111.2593 0001500 281.6493 113.7620  1.00269195 53311
OPTUS D3                
1 35756U 09044B   24071.76388455 -.00000158  00000+0  00000+0 0  9996
2 35756   0.0133  16.6810 0004412 335.7789 248.4365  1.00270441 53335
NIMIQ 5                 
1 35873U 09050A   24072.14800288 -.00000267  00000+0  00000+0 0  9990
2 35873   0.0299 257.7194 0002676  87.9234 165.2067  1.00271252 53057
AMAZONAS 2              
1 35942U 09054A   24071.48324316 -.00000293  00000+0  00000+0 0  9999
2 35942   0.0354 128.5904 0002716 271.3698 242.6062  1.00269294 52886
COMSATBW-1              
1 35943U 09054B   24072.20118654  .00000015  00000+0  00000+0 0  9998
2 35943   0.0409 100.6930 0002778 254.2611 310.7839  1.00269852 52969
NSS-12                  
1 36032U 09058A   24071.59758741  .00000060  00000+0  00000+0 0  9990
2 36032   0.0390 310.8587 0002567  42.0823  88.9036  1.00271739 52617
THOR 6                  
1 36033U 09058B   24071.58947120 -.00000021  00000+0  00000+0 0  9999
2 36033   0.0100 187.6497 0001865 183.7266   9.6769  1.00270555 52709
INTELSAT 14 (IS-14)     
1 36097U 09064A   24072.22132876 -.00000284  00000+0  00000+0 0  9993
2 36097   0.0245 267.1595 0002432  95.1989 202.6667  1.00268911 52403
EUTELSAT 36B            
1 36101U 09065A   24071.59678111  .00000144  00000+0  00000+0 0  9990
2 36101   0.0710   9.4788 0005652 350.1091  60.8624  1.00273443 52416
INTELSAT 15 (IS-15)     
1 36106U 09067A   24072.10779845 -.00000196  00000+0  00000+0 0  9999
2 36106   0.0074 116.2346 0002229 236.1028 301.8359  1.00271691 52305
WGS F3 (USA 211)        
1 36108U 09068A   24072.22132876 -.00000279  00000+0  00000+0 0  9994
2 36108   0.0533 102.7823 0000465 161.3660 303.0314  1.00267489 52213
DIRECTV 12              
1 36131U 09075A   24071.69563417 -.00000114  00000+0  00000+0 0  9995
2 36131   0.0096  36.9597 0000555 294.2257 346.3468  1.00271170 52095
BEIDOU-2 G1             
1 36287U 10001A   24071.83239174 -.00000290  00000+0  00000+0 0  9999
2 36287   2.4038  56.6688 0005327 297.5545 255.8634  1.00270499 51874
RADUGA-1M 2             
1 36358U 10002A   24071.89173939 -.00000193  00000+0  00000+0 0  9993
2 36358   1.4682  89.7302 0002442 240.8849 245.4132  1.00269787 51719
SDO                     
1 36395U 10005A   24072.07072682 -.00000062  00000+0  00000+0 0  9996
2 36395  32.9229  99.1035 0002156 217.0050 137.6594  1.00275092 51738
INTELSAT 16 (IS-16)     
1 36397U 10006A   24072.14730670 -.00000255  00000+0  00000+0 0  9999
2 36397   0.0191 128.5036 0001957 226.7677 151.8090  1.00270499 51423
EWS-G2 (GOES 15)        
1 36411U 10008A   24072.20466104  .00000029  00000+0  00000+0 0  9991
2 36411   0.0544 106.2653 0003341 181.7761  17.1672  1.00270159 51336
ECHOSTAR 14             
1 36499U 10010A   24072.19659522 -.00000010  00000+0  00000+0 0  9997
2 36499   0.0193 198.1033 0001905 149.7005 134.3814  1.00271628 51245
SES-1                   
1 36516U 10016A   24072.50466071 -.00000125  00000+0  00000+0 0  9990
2 36516   0.0415 320.3056 0002421  37.2514 253.7298  1.00271003 50840
ASTRA 3B                
1 36581U 10021A   24071.84355179  .00000126  00000+0  00000+0 0  9990
2 36581   0.0517 340.8962 0003049  30.8836 125.3704  1.00269141 50353
COMSATBW-2              
1 36582U 10021B   24071.85743856  .00000078  00000+0  00000+0 0  9991
2 36582   0.0577  88.9777 0002319 273.4687 129.4047  1.00274063 50693
BEIDOU-2 G3             
1 36590U 10024A   24072.17811272 -.00000143  00000+0  00000+0 0  9991
2 36590   2.5895  59.9864 0008926 327.5918 286.3388  1.00272788 50485
BADR-5                  
1 36592U 10025A   24071.52202139  .00000133  00000+0  00000+0 0  9996
2 36592   0.0281 142.3061 0001411 254.1535 347.0974  1.00269022 44911
COMS 1                  
1 36744U 10032A   24071.97317450 -.00000354  00000+0  00000+0 0  9991
2 36744   2.6784  85.8854 0000806 273.5650 289.1297  1.00270327 50356
ARABSAT-5A              
1 36745U 10032B   24071.84355179  .00000143  00000+0  00000+0 0  9993
2 36745   0.0795  59.8913 0004090 312.0826 132.1501  1.00273421 50332
ECHOSTAR 15             
1 36792U 10034A   24072.22810132 -.00000292  00000+0  00000+0 0  9991
2 36792   0.0350 272.2240 0002486  48.5506 230.0348  1.00271793 50100
BEIDOU-2 IGSO-1         
1 36828U 10036A   24070.90542479 -.00000146  00000+0  00000+0 0  9990
2 36828  54.2464 170.4594 0039829 196.5315 234.5973  1.00254740 49903
NILESAT 201             
1 36830U 10037A   24072.16105627 -.00000068  00000+0  00000+0 0  9997
2 36830   0.0245 209.9714 0002574 139.6552 231.6220  1.00271796 49994
RASCOM-QAF 1R           
1 36831U 10037B   24072.16297078  .00000008  00000+0  00000+0 0  9993
2 36831   0.0594 103.6849 0005830 236.1373 252.0221  1.00272682 49996
AEHF-1 (USA 214)        
1 36868U 10039A   24072.30647108  .00000016  00000+0  00000+0 0  9993
2 36868   6.1356  78.5582 0001069 338.7653 227.4001  1.00270003 50149
XM-5                    
1 37185U 10053A   24072.29632712 -.00000033  00000+0  00000+0 0  9995
2 37185   0.0445 274.3294 0000730 316.1790 291.3789  1.00269894 49154
BSAT-3B                 
1 37207U 10056B   24071.89786557 -.00000361  00000+0  00000+0 0  9999
2 37207   0.0691 303.2071 0004699  36.7793 263.1080  1.00271141 48971
